IRIDIUM 166             
1 43570U 18061B   24355.24011102  .00000602  00000+0  20776-3 0  9997
2 43570  86.3962 284.0306 0001858  88.5344 271.6064 14.34224917335433
IRIDIUM 158             
1 43571U 18061C   24355.76655555  .00000172  00000+0  54454-4 0  9994
2 43571  86.3962 283.8203 0002065  77.8632 282.2795 14.34218090335477
IRIDIUM 165             
1 43572U 18061D   24355.79192735  .00000028  00000+0  28021-5 0  9996
2 43572  86.3966 283.8457 0002229  86.8959 273.2491 14.34217551335505
IRIDIUM 155             
1 43573U 18061E   24355.82362472  .00000586  00000+0  20231-3 0  9990
2 43573  86.3960 283.7283 0001822  81.1404 278.9998 14.34224681335479
IRIDIUM 154             
1 43574U 18061F   24355.87436990  .00001098  00000+0  38516-3 0  9997
2 43574  86.3962 283.8135 0002266  82.6226 277.5227 14.34214951335536
IRIDIUM 163             
1 43575U 18061G   24355.22743495  .00000075  00000+0  19763-4 0  9996
2 43575  86.3963 284.0170 0002038  80.1018 280.0408 14.34218369335413
IRIDIUM 156             
1 43576U 18061H   24355.76022051  .00000620  00000+0  21418-3 0  9999
2 43576  86.3962 283.8008 0001827  84.9432 275.1972 14.34217620335484
IRIDIUM 164             
1 43577U 18061J   24355.81095091  .00000746  00000+0  25928-3 0  9999
2 43577  86.3966 283.8113 0002257  90.6887 269.4567 14.34215480335536
